{
  "type": "FeatureCollection",
  "features": [
    {
      "type": "Feature",
      "properties": {
        "norad_id": 33844,
        "name": "COSMOS 2251 DEB",
        "group": "cosmos-2251-debris",
        "lat": -3.2969328283908657,
        "lon": 58.29347555926637,
        "alt_km": 779.6976073444257,
        "timestamp": "2025-12-09T04:51:47.884275+00:00",
        "meta_object_name": "COSMOS 2251 DEB",
        "meta_object_id": "1993-036CM",
        "meta_epoch": "2025-12-08T16:13:34.697856",
        "meta_mean_motion": 14.33704134,
        "meta_eccentricity": 0.0047092,
        "meta_inclination": 74.0672,
        "meta_ra_of_asc_node": 60.1972,
        "meta_arg_of_pericenter": 83.4517,
        "meta_mean_anomaly": 77.207,
        "meta_ephemeris_type": 0,
        "meta_classification_type": "U",
        "meta_norad_cat_id": 33844,
        "meta_element_set_no": 999,
        "meta_rev_at_epoch": 87667,
        "meta_bstar": 0.00072464,
        "meta_mean_motion_dot": 2.011e-05,
        "meta_mean_motion_ddot": 0,
        "tle_line1": "1 33844U 93036CM  25342.67609604  .00002011  00000+0  72464-3 0  9996",
        "tle_line2": "2 33844  74.0672  60.1972 0047092  83.4517  77.2070 14.33704134876672"
      },
      "geometry": {
        "type": "Point",
        "coordinates": [
          58.29347555926637,
          -3.2969328283908657
        ]
      }
    },
    {
      "type": "Feature",
      "properties": {
        "norad_id": 33848,
        "name": "COSMOS 2251 DEB",
        "group": "cosmos-2251-debris",
        "lat": 42.66000509458084,
        "lon": 19.522484271323126,
        "alt_km": 713.3358845425046,
        "timestamp": "2025-12-09T04:51:47.884286+00:00",
        "meta_object_name": "COSMOS 2251 DEB",
        "meta_object_id": "1993-036CR",
        "meta_epoch": "2025-12-08T19:28:41.083104",
        "meta_mean_motion": 14.44022497,
        "meta_eccentricity": 0.004099,
        "meta_inclination": 74.032,
        "meta_ra_of_asc_node": 4.9513,
        "meta_arg_of_pericenter": 62.13,
        "meta_mean_anomaly": 110.8478,
        "meta_ephemeris_type": 0,
        "meta_classification_type": "U",
        "meta_norad_cat_id": 33848,
        "meta_element_set_no": 999,
        "meta_rev_at_epoch": 87774,
        "meta_bstar": 0.0016326,
        "meta_mean_motion_dot": 5.618e-05,
        "meta_mean_motion_ddot": 0,
        "tle_line1": "1 33848U 93036CR  25342.81158661  .00005618  00000+0  16326-2 0  9998",
        "tle_line2": "2 33848  74.0320   4.9513 0040990  62.1300 110.8478 14.44022497877749"
      },
      "geometry": {
        "type": "Point",
        "coordinates": [
          19.522484271323126,
          42.66000509458084
        ]
      }
    },
    {
      "type": "Feature",
      "properties": {
        "norad_id": 33892,
        "name": "COSMOS 2251 DEB",
        "group": "cosmos-2251-debris",
        "lat": -51.07310572363684,
        "lon": -50.397837026128904,
        "alt_km": 824.9274158650624,
        "timestamp": "2025-12-09T04:51:47.884295+00:00",
        "meta_object_name": "COSMOS 2251 DEB",
        "meta_object_id": "1993-036CV",
        "meta_epoch": "2025-12-08T20:05:02.766048",
        "meta_mean_motion": 14.23315472,
        "meta_eccentricity": 0.0113183,
        "meta_inclination": 73.8032,
        "meta_ra_of_asc_node": 109.1774,
        "meta_arg_of_pericenter": 141.1498,
        "meta_mean_anomaly": 17.9872,
        "meta_ephemeris_type": 0,
        "meta_classification_type": "U",
        "meta_norad_cat_id": 33892,
        "meta_element_set_no": 999,
        "meta_rev_at_epoch": 86899,
        "meta_bstar": 0.0017271,
        "meta_mean_motion_dot": 4.156e-05,
        "meta_mean_motion_ddot": 0,
        "tle_line1": "1 33892U 93036CV  25342.83683757  .00004156  00000+0  17271-2 0  9994",
        "tle_line2": "2 33892  73.8032 109.1774 0113183 141.1498  17.9872 14.23315472868990"
      },
      "geometry": {
        "type": "Point",
        "coordinates": [
          -50.397837026128904,
          -51.07310572363684
        ]
      }
    },
    {
      "type": "Feature",
      "properties": {
        "norad_id": 33894,
        "name": "COSMOS 2251 DEB",
        "group": "cosmos-2251-debris",
        "lat": 8.260450346917617,
        "lon": -3.0222776033518945,
        "alt_km": 1188.6757824493725,
        "timestamp": "2025-12-09T04:51:47.884306+00:00",
        "meta_object_name": "COSMOS 2251 DEB",
        "meta_object_id": "1993-036CX",
        "meta_epoch": "2025-12-08T10:38:58.588224",
        "meta_mean_motion": 13.21283258,
        "meta_eccentricity": 0.05795731,
        "meta_inclination": 73.7668,
        "meta_ra_of_asc_node": 355.7273,
        "meta_arg_of_pericenter": 275.6874,
        "meta_mean_anomaly": 77.844,
        "meta_ephemeris_type": 0,
        "meta_classification_type": "U",
        "meta_norad_cat_id": 33894,
        "meta_element_set_no": 999,
        "meta_rev_at_epoch": 80651,
        "meta_bstar": 0.0026326972,
        "meta_mean_motion_dot": 2.6e-05,
        "meta_mean_motion_ddot": 0,
        "tle_line1": "1 33894U 93036CX  25342.44373366  .00002600  00000+0  26327-2 0  9999",
        "tle_line2": "2 33894  73.7668 355.7273 0579573 275.6874  77.8440 13.21283258806518"
      },
      "geometry": {
        "type": "Point",
        "coordinates": [
          -3.0222776033518945,
          8.260450346917617
        ]
      }
    },
    {
      "type": "Feature",
      "properties": {
        "norad_id": 33896,
        "name": "COSMOS 2251 DEB",
        "group": "cosmos-2251-debris",
        "lat": -3.0758732722049213,
        "lon": 162.20749326842292,
        "alt_km": 744.7293199957694,
        "timestamp": "2025-12-09T04:51:47.884316+00:00",
        "meta_object_name": "COSMOS 2251 DEB",
        "meta_object_id": "1993-036CZ",
        "meta_epoch": "2025-12-08T18:48:35.015040",
        "meta_mean_motion": 14.19023676,
        "meta_eccentricity": 0.0126283,
        "meta_inclination": 73.766,
        "meta_ra_of_asc_node": 163.8648,
        "meta_arg_of_pericenter": 340.1917,
        "meta_mean_anomaly": 37.177,
        "meta_ephemeris_type": 0,
        "meta_classification_type": "U",
        "meta_norad_cat_id": 33896,
        "meta_element_set_no": 999,
        "meta_rev_at_epoch": 86684,
        "meta_bstar": 0.00094375,
        "meta_mean_motion_dot": 2.106e-05,
        "meta_mean_motion_ddot": 0,
        "tle_line1": "1 33896U 93036CZ  25342.78373860  .00002106  00000+0  94375-3 0  9997",
        "tle_line2": "2 33896  73.7660 163.8648 0126283 340.1917  37.1770 14.19023676866849"
      },
      "geometry": {
        "type": "Point",
        "coordinates": [
          162.20749326842292,
          -3.0758732722049213
        ]
      }
    },
    {
      "type": "Feature",
      "properties": {
        "norad_id": 33899,
        "name": "COSMOS 2251 DEB",
        "group": "cosmos-2251-debris",
        "lat": -20.020404209596958,
        "lon": -81.53877311540225,
        "alt_km": 665.4611248789743,
        "timestamp": "2025-12-09T04:51:47.884326+00:00",
        "meta_object_name": "COSMOS 2251 DEB",
        "meta_object_id": "1993-036DC",
        "meta_epoch": "2025-12-08T18:39:49.233024",
        "meta_mean_motion": 14.61125834,
        "meta_eccentricity": 0.0057154,
        "meta_inclination": 74.0542,
        "meta_ra_of_asc_node": 93.2926,
        "meta_arg_of_pericenter": 157.1024,
        "meta_mean_anomaly": 328.6608,
        "meta_ephemeris_type": 0,
        "meta_classification_type": "U",
        "meta_norad_cat_id": 33899,
        "meta_element_set_no": 999,
        "meta_rev_at_epoch": 88781,
        "meta_bstar": 0.001752,
        "meta_mean_motion_dot": 8.8e-05,
        "meta_mean_motion_ddot": 0,
        "tle_line1": "1 33899U 93036DC  25342.77765316  .00008800  00000+0  17520-2 0  9993",
        "tle_line2": "2 33899  74.0542  93.2926 0057154 157.1024 328.6608 14.61125834887819"
      },
      "geometry": {
        "type": "Point",
        "coordinates": [
          -81.53877311540225,
          -20.020404209596958
        ]
      }
    },
    {
      "type": "Feature",
      "properties": {
        "norad_id": 33900,
        "name": "COSMOS 2251 DEB",
        "group": "cosmos-2251-debris",
        "lat": -73.87525934921213,
        "lon": -75.80997109670571,
        "alt_km": 718.0880800844807,
        "timestamp": "2025-12-09T04:51:47.884336+00:00",
        "meta_object_name": "COSMOS 2251 DEB",
        "meta_object_id": "1993-036DD",
        "meta_epoch": "2025-12-08T20:12:24.192288",
        "meta_mean_motion": 14.58327211,
        "meta_eccentricity": 0.0047066,
        "meta_inclination": 74.0192,
        "meta_ra_of_asc_node": 7.2895,
        "meta_arg_of_pericenter": 160.4909,
        "meta_mean_anomaly": 18.2718,
        "meta_ephemeris_type": 0,
        "meta_classification_type": "U",
        "meta_norad_cat_id": 33900,
        "meta_element_set_no": 999,
        "meta_rev_at_epoch": 88979,
        "meta_bstar": 0.00070385,
        "meta_mean_motion_dot": 3.278e-05,
        "meta_mean_motion_ddot": 0,
        "tle_line1": "1 33900U 93036DD  25342.84194667  .00003278  00000+0  70385-3 0  9992",
        "tle_line2": "2 33900  74.0192   7.2895 0047066 160.4909  18.2718 14.58327211889795"
      },
      "geometry": {
        "type": "Point",
        "coordinates": [
          -75.80997109670571,
          -73.87525934921213
        ]
      }
    }
  ]
}